{
  "type": "FeatureCollection",
  "name": "Ruta 1 San Fernando: geometría candidata histórica",
  "features": [
    {
      "type": "Feature",
      "id": "M09-514-trazo-1",
      "properties": {
        "SISTEMA": "TRANSPORTE PÚBLICO CONCESIONADO DE RUTA",
        "RUTA": "1",
        "RAMAL": "METRO CU - SAN FERNANDO HUIPULCO",
        "DETALLE": "001 METRO CU - SAN FERNANDO HUIPULCO CC OD",
        "fuente_id": "M09",
        "placemark_id": "514",
        "linestring_id": "515",
        "trazo": 1,
        "vertices": 61,
        "longitud_cartografica_m": 10146.227164043823,
        "metodo_longitud": "Haversine, esfera R=6371008.8 m; suma entre vértices consecutivos",
        "fecha_consulta": "2026-10-06",
        "fecha_archivo_interno": "2022-09-02",
        "sentido_operativo_validado": false,
        "altitud_excluida": "Coordenadas Z=0 del origen no acreditan elevación ni terreno plano",
        "licencia": "CC BY 4.0; atribución SEMOVI CDMX; derivación propia",
        "url_fuente": "https://datos.cdmx.gob.mx/dataset/ubicacion-de-rutas-del-transporte-publico-concesionado-de-ruta",
        "limitacion": "Geometría histórica candidata; no kilómetros de operación medidos ni ciclo actual confirmado."
      },
      "geometry": {
        "type": "LineString",
        "coordinates": [
          [
            -99.1728301490283,
            19.3233442741303
          ],
          [
            -99.1733018710487,
            19.3253080868705
          ],
          [
            -99.1735725483073,
            19.3262299021028
          ],
          [
            -99.1733221336421,
            19.3283743762963
          ],
          [
            -99.1734742088643,
            19.3285534698469
          ],
          [
            -99.1736490013963,
            19.328513052857
          ],
          [
            -99.1738110556357,
            19.3283211954099
          ],
          [
            -99.1738399632906,
            19.3277690012905
          ],
          [
            -99.1741502303478,
            19.3251227143644
          ],
          [
            -99.1745060352944,
            19.322437083765
          ],
          [
            -99.1745554453496,
            19.3220067801355
          ],
          [
            -99.1745866306121,
            19.3189020089327
          ],
          [
            -99.1746468528495,
            19.3174343980947
          ],
          [
            -99.1747824816879,
            19.3163653276629
          ],
          [
            -99.1747497886006,
            19.31576884796
          ],
          [
            -99.1745737055008,
            19.3153467371609
          ],
          [
            -99.1739525686641,
            19.3145944754177
          ],
          [
            -99.1730540103775,
            19.3135550628232
          ],
          [
            -99.1724110767029,
            19.3128010628321
          ],
          [
            -99.1722327807321,
            19.3121728831762
          ],
          [
            -99.1724256499526,
            19.3114597659627
          ],
          [
            -99.1729717962193,
            19.311015691179
          ],
          [
            -99.1751496475734,
            19.3100654545614
          ],
          [
            -99.1805060848534,
            19.307749891704
          ],
          [
            -99.1804325188399,
            19.3053584593828
          ],
          [
            -99.1803762429597,
            19.3039305339632
          ],
          [
            -99.1806036112482,
            19.3036725562462
          ],
          [
            -99.1821971242595,
            19.3035672419816
          ],
          [
            -99.1839726298061,
            19.3033376820555
          ],
          [
            -99.1862655732517,
            19.3030674461226
          ],
          [
            -99.1868608684136,
            19.3030667978366
          ],
          [
            -99.1870787926453,
            19.3033388831199
          ],
          [
            -99.1870226223936,
            19.3036738306978
          ],
          [
            -99.1866911392853,
            19.303772727389
          ],
          [
            -99.1864873480443,
            19.3036800318545
          ],
          [
            -99.1863097334637,
            19.3033215967957
          ],
          [
            -99.186186161678,
            19.3030854948908
          ],
          [
            -99.1853104918988,
            19.2963181271972
          ],
          [
            -99.1851612143595,
            19.2959459433166
          ],
          [
            -99.1848488515337,
            19.2955452223457
          ],
          [
            -99.1836163575047,
            19.2949864889025
          ],
          [
            -99.1828005263797,
            19.2951118505805
          ],
          [
            -99.1822017092126,
            19.2952519823224
          ],
          [
            -99.1793244780958,
            19.2951471361006
          ],
          [
            -99.1776877254562,
            19.2950173032791
          ],
          [
            -99.176316646326,
            19.2949444570145
          ],
          [
            -99.1756154129061,
            19.2949512677845
          ],
          [
            -99.1752994162356,
            19.2949344217482
          ],
          [
            -99.1740548132025,
            19.2944977826701
          ],
          [
            -99.1704529400599,
            19.2931742817398
          ],
          [
            -99.1659454947024,
            19.2916111240054
          ],
          [
            -99.1646781160894,
            19.2911528140205
          ],
          [
            -99.1625615391291,
            19.2904205712365
          ],
          [
            -99.1621036127521,
            19.2901098346034
          ],
          [
            -99.1614114045389,
            19.2906730120991
          ],
          [
            -99.1596757890321,
            19.2919160087909
          ],
          [
            -99.1563546841846,
            19.2943233784389
          ],
          [
            -99.1527617943386,
            19.2969687846962
          ],
          [
            -99.1503964927659,
            19.2986222786353
          ],
          [
            -99.148892184877,
            19.2996917377829
          ],
          [
            -99.147804812272,
            19.3004769409796
          ]
        ]
      }
    },
    {
      "type": "Feature",
      "id": "M09-514-trazo-2",
      "properties": {
        "SISTEMA": "TRANSPORTE PÚBLICO CONCESIONADO DE RUTA",
        "RUTA": "1",
        "RAMAL": "METRO CU - SAN FERNANDO HUIPULCO",
        "DETALLE": "001 METRO CU - SAN FERNANDO HUIPULCO CC OD",
        "fuente_id": "M09",
        "placemark_id": "514",
        "linestring_id": "517",
        "trazo": 2,
        "vertices": 55,
        "longitud_cartografica_m": 10193.7854529633,
        "metodo_longitud": "Haversine, esfera R=6371008.8 m; suma entre vértices consecutivos",
        "fecha_consulta": "2026-10-06",
        "fecha_archivo_interno": "2022-09-02",
        "sentido_operativo_validado": false,
        "altitud_excluida": "Coordenadas Z=0 del origen no acreditan elevación ni terreno plano",
        "licencia": "CC BY 4.0; atribución SEMOVI CDMX; derivación propia",
        "url_fuente": "https://datos.cdmx.gob.mx/dataset/ubicacion-de-rutas-del-transporte-publico-concesionado-de-ruta",
        "limitacion": "Geometría histórica candidata; no kilómetros de operación medidos ni ciclo actual confirmado."
      },
      "geometry": {
        "type": "LineString",
        "coordinates": [
          [
            -99.1475114513129,
            19.3007766875075
          ],
          [
            -99.1457547548686,
            19.3029030691595
          ],
          [
            -99.1442706538452,
            19.3049916419974
          ],
          [
            -99.1447222784925,
            19.3053103288702
          ],
          [
            -99.1471458428038,
            19.3020386375456
          ],
          [
            -99.1476692840408,
            19.3013284346249
          ],
          [
            -99.1480057628787,
            19.3009068287537
          ],
          [
            -99.1540502757014,
            19.2964203214029
          ],
          [
            -99.1584137366097,
            19.2931524426109
          ],
          [
            -99.1621676457001,
            19.2904684625129
          ],
          [
            -99.1628359496878,
            19.2907221993733
          ],
          [
            -99.1647032080369,
            19.2914276531388
          ],
          [
            -99.165971434629,
            19.2918760927841
          ],
          [
            -99.1666440751013,
            19.2920646040129
          ],
          [
            -99.1707615985694,
            19.2935021774534
          ],
          [
            -99.1749241910081,
            19.2950265335141
          ],
          [
            -99.1752993486829,
            19.2951342272406
          ],
          [
            -99.1769067888253,
            19.2951440381429
          ],
          [
            -99.1791823092919,
            19.2953205510567
          ],
          [
            -99.1807476689608,
            19.2953767275882
          ],
          [
            -99.1822136455042,
            19.2954014487153
          ],
          [
            -99.1829222348688,
            19.2954773374386
          ],
          [
            -99.1845905624013,
            19.2956972533431
          ],
          [
            -99.1849578354979,
            19.2961327475794
          ],
          [
            -99.1851091470089,
            19.29650092914
          ],
          [
            -99.185187692277,
            19.2969089033474
          ],
          [
            -99.1856373996929,
            19.3008253201361
          ],
          [
            -99.1858398448325,
            19.3025890226297
          ],
          [
            -99.1859501210867,
            19.3046853092799
          ],
          [
            -99.185703731091,
            19.3050155745511
          ],
          [
            -99.1852522417437,
            19.3052738946561
          ],
          [
            -99.1833513225385,
            19.3063088927078
          ],
          [
            -99.1807601606307,
            19.3074757765027
          ],
          [
            -99.1801852973129,
            19.3077205877214
          ],
          [
            -99.1790286490637,
            19.3080876006453
          ],
          [
            -99.1759667462106,
            19.3092989973154
          ],
          [
            -99.17428387291,
            19.3099767894417
          ],
          [
            -99.1723992099881,
            19.3108052071359
          ],
          [
            -99.1714314484049,
            19.311265159998
          ],
          [
            -99.1706254400172,
            19.3120349844098
          ],
          [
            -99.1702070802807,
            19.3123111823801
          ],
          [
            -99.1709223317099,
            19.3125266113394
          ],
          [
            -99.1722239855499,
            19.3131389183859
          ],
          [
            -99.1726291388796,
            19.3136146246624
          ],
          [
            -99.1731274088629,
            19.3143451083531
          ],
          [
            -99.1738285741041,
            19.3154882936019
          ],
          [
            -99.1739614466917,
            19.3164896662869
          ],
          [
            -99.1739396980812,
            19.3202476802787
          ],
          [
            -99.173835132048,
            19.3204918498276
          ],
          [
            -99.1732388080313,
            19.3207850164868
          ],
          [
            -99.1727921132797,
            19.3209590283809
          ],
          [
            -99.1725302156178,
            19.3212708996867
          ],
          [
            -99.1725666896054,
            19.3216126474724
          ],
          [
            -99.1728882511806,
            19.3232134455914
          ],
          [
            -99.1732573216565,
            19.3253374850501
          ]
        ]
      }
    }
  ]
}
